OBJECT_NAME,OBJECT_ID,EPOCH,MEAN_MOTION,ECCENTRICITY,INCLINATION,RA_OF_ASC_NODE,ARG_OF_PERICENTER,MEAN_ANOMALY,EPHEMERIS_TYPE,CLASSIFICATION_TYPE,NORAD_CAT_ID,ELEMENT_SET_NO,REV_AT_EPOCH,BSTAR,MEAN_MOTION_DOT,MEAN_MOTION_DDOT
BEIDOU-2 IGSO-1,2010-036A,2026-07-22T20:02:21.598944,1.00261993,.00590598,54.3079,162.6381,225.2794,320.0279,0,U,36828,999,5845,0,-.9E-6,0
NILESAT 201,2010-037A,2026-07-23T19:47:44.233728,1.00271566,.0005197,0.0320,191.4693,304.8240,95.1830,0,U,36830,999,5874,0,-.53E-6,0
RASCOM-QAF 1R,2010-037B,2026-07-23T20:59:38.609088,1.00272388,.0006005,0.0233,86.9311,25.9594,146.5127,0,U,36831,999,5867,0,.24E-6,0
YAOGAN-10,2010-038A,2026-07-23T20:57:54.153216,14.85448658,.0001632,97.8979,227.9857,84.8810,38.2674,0,U,36834,999,86265,.13959E-3,.1149E-4,0
AEHF-1 (USA 214),2010-039A,2026-07-23T19:33:38.736288,1.00266380,.0003983,8.3110,67.5600,52.0660,145.3917,0,U,36868,999,5402,0,.145E-5,0
COSMOS 2467,2010-043A,2026-07-23T19:33:46.998720,12.42986848,.0001768,82.4548,42.1000,71.1497,121.8673,0,U,37152,999,72005,.28413E-3,.49E-6,0
STRELA 3,2010-043B,2026-07-23T20:04:24.164256,12.40792270,.0007955,82.4558,55.5834,10.8977,349.2272,0,U,37153,999,71891,-.61412E-3,-.73E-6,0
COSMOS 2468 (RODNIK-S 3),2010-043C,2026-07-23T07:17:26.317248,12.43748132,.001389,82.4588,39.6153,227.4718,306.3470,0,U,37154,999,72036,.1237E-3,.27E-6,0
YAOGAN-11,2010-047A,2026-07-23T08:54:57.297600,14.82126813,.0035706,98.3810,72.1736,124.7036,235.7548,0,U,37165,999,85345,.89523E-4,.66E-5,0
ZHEDA PIXING 1B,2010-047B,2026-07-23T20:51:05.027616,14.91313217,.0019803,97.9507,183.3371,155.4946,204.7218,0,U,37166,999,85588,.11772E-3,.1118E-4,0
ZHEDA PIXING 1C,2010-047C,2026-07-23T20:48:51.989760,14.91050826,.0019301,97.9805,186.8836,161.7256,198.4660,0,U,37167,999,85589,.95807E-4,.892E-5,0
SBSS (USA 216),2010-048A,2026-07-23T21:27:52.506144,15.16785439,.0082234,97.7283,91.0645,77.1977,51.1043,0,U,37168,999,85803,.22605E-3,.4766E-4,0
SHIJIAN-6 04A (SJ-6 04A),2010-051A,2026-07-23T20:52:31.660896,15.18362871,.0020189,97.8288,229.3321,99.0299,261.3220,0,U,37179,999,86251,.30297E-3,.6184E-4,0
SHIJIAN-6 04B (SJ-6 04B),2010-051B,2026-07-23T20:40:32.292768,14.99380422,.0008776,97.8726,210.6646,185.7795,174.3327,0,U,37180,999,86117,.83874E-5,.41E-6,0
XM-5,2010-053A,2026-07-23T07:49:18.078816,1.00271189,.0001327,0.0616,262.9774,309.4997,90.7012,0,U,37185,999,5784,0,-.18E-6,0
GLOBALSTAR M079,2010-054A,2026-07-23T21:36:42.557184,12.62266445,.000111,52.0060,356.9093,91.6633,73.2485,0,U,37188,999,72718,.35675E-4,-.97E-6,0
GLOBALSTAR M074,2010-054B,2026-07-23T20:15:03.811104,12.62262047,.0000824,52.0038,356.3417,106.4571,40.5266,0,U,37189,999,72778,.20562E-4,-.1E-5,0
GLOBALSTAR M076,2010-054C,2026-07-23T10:47:05.872128,12.62262713,.0001074,52.0054,357.7490,103.3381,290.3890,0,U,37190,999,72745,.12603E-3,-.81E-6,0
GLOBALSTAR M077,2010-054D,2026-07-23T02:31:24.438144,11.67547147,.00021482,51.9963,88.1305,239.9139,289.0346,0,U,37191,999,72533,-.19577933E-3,-.89E-6,0
GLOBALSTAR M075,2010-054E,2026-07-23T12:54:41.892768,12.62267911,.0000798,51.9957,39.5122,76.6603,300.6199,0,U,37192,999,72653,.99945E-5,-.102E-5,0
GLOBALSTAR M073,2010-054F,2026-07-23T17:24:25.898400,12.62266984,.0000956,52.0078,313.0725,109.4951,37.6656,0,U,37193,999,72854,.21411E-4,-.1E-5,0
BSAT-3B,2010-056B,2026-07-23T13:16:38.626176,1.00270216,.0003012,0.0651,236.3433,300.0842,73.8452,0,U,37207,999,5246,0,-.345E-5,0
BEIDOU-2 G4,2010-057A,2026-07-23T18:52:43.796064,1.00273350,.0005259,3.7357,68.7160,182.6467,133.2903,0,U,37210,999,5765,0,-.111E-5,0
FENGYUN 3B,2010-059A,2026-07-23T20:59:21.357600,14.14846689,.0023244,98.9605,251.0404,83.3055,25.3130,0,U,37214,999,81261,-.11438E-3,-.266E-5,0
COSMO-SKYMED 4,2010-060A,2026-07-23T19:57:59.910624,14.82157824,.0001547,97.8906,27.9026,87.2428,272.8962,0,U,37216,999,84999,.63689E-4,.455E-5,0
SKYTERRA 1,2010-061A,2026-07-23T15:15:59.488416,1.00276478,.0002802,5.2004,50.7890,28.1007,350.1626,0,U,37218,999,5756,0,-.118E-5,0
O/OREOS (USA 219),2010-062C,2026-07-23T10:11:59.527392,14.93874898,.0014555,71.9706,358.2425,349.2914,10.7944,0,U,37224,999,12205,.17393E-3,.1789E-4,0
FASTSAT-HSV01 (USA 220),2010-062D,2026-07-23T01:40:15.758976,14.82171658,.00148321,71.9718,79.9133,56.9397,303.3189,0,U,37225,999,11944,.59266847E-4,.415E-5,0
HYLAS 1,2010-065A,2026-07-23T20:02:09.458880,1.00646234,.0001251,5.7334,72.5639,132.4035,81.0615,0,U,37237,999,725,0,.94E-6,0
INTELSAT 17 (IS-17),2010-065B,2026-07-23T20:08:31.347744,1.00272669,.0002449,0.0188,101.7614,20.5500,187.3866,0,U,37238,999,5361,0,.3E-7,0
BEIDOU-2 IGSO-2,2010-068A,2026-07-21T21:04:35.859648,1.00271863,.00570454,47.4828,271.3972,214.5351,238.1175,0,U,37256,999,5714,0,-.198E-5,0
EUTELSAT KA-SAT 9A,2010-069A,2026-07-23T20:59:38.609088,1.00269888,.0004755,0.0676,341.3850,166.4073,117.7181,0,U,37258,999,4437,0,.66E-6,0
HISPASAT 30W-5,2010-070A,2026-07-23T19:41:07.369152,1.00274984,.0005832,0.0221,147.1636,346.8791,72.7933,0,U,37264,999,5355,0,-.211E-5,0
KOREASAT 6,2010-070B,2026-07-23T20:15:38.827296,1.00271861,.0002885,0.0120,344.1756,145.8807,275.3191,0,U,37265,999,5713,0,-.106E-5,0
BEIDOU-2 IGSO-3,2011-013A,2026-07-21T11:51:52.944192,1.00259347,.00358813,62.4558,39.8259,183.5212,359.9880,0,U,37384,999,5600,0,-.172E-5,0
RESOURCESAT-2,2011-015A,2026-07-23T19:53:34.633248,14.21601014,.0012021,98.7625,272.0137,147.3783,212.8139,0,U,37387,999,79138,.43555E-4,.51E-6,0
YOUTHSAT,2011-015B,2026-07-23T20:28:54.693984,14.25643286,.0013387,98.3712,177.2596,231.5734,141.8849,0,U,37388,999,79286,.86957E-4,.165E-5,0
X-SAT,2011-015C,2026-07-23T20:56:33.992160,14.25215315,.0012868,98.3539,180.1532,232.7043,127.2965,0,U,37389,999,79290,.86147E-5,-.21E-6,0
INTELSAT 28 (IS-28),2011-016A,2026-07-23T19:40:37.416000,1.00272290,.0003994,1.8981,82.1771,42.4508,80.3640,0,U,37392,999,5365,0,-.222E-5,0
YAHSAT 1A,2011-016B,2026-07-23T09:48:48.623904,1.00270662,.0003548,0.0157,79.3302,35.4945,26.0036,0,U,37393,999,4277,0,.106E-5,0
SBIRS GEO-1 (USA 230),2011-019A,2026-07-23T18:51:38.692800,1.00272330,.0001763,4.6146,53.0871,66.7291,156.4107,0,U,37481,999,5576,0,.101E-5,0
TELSTAR 14R,2011-021A,2026-07-23T14:12:34.423776,0.98982139,.0007943,0.1044,85.0277,294.6191,32.3871,0,U,37602,999,5619,0,.35E-6,0
GSAT-8,2011-022A,2026-07-23T20:05:24.149184,1.00272639,.0002547,2.2229,81.3773,149.3584,67.2547,0,U,37605,999,5358,0,.87E-6,0
ST-2,2011-022B,2026-07-23T20:14:45.750048,1.00271460,.0001618,0.0195,58.3023,74.6154,200.3532,0,U,37606,999,5564,0,0,0
ZHONGXING-10,2011-026A,2026-07-23T20:19:38.577792,1.00273015,.000369,1.1395,83.7836,22.6458,225.5771,0,U,37677,999,5536,0,-.185E-5,0
SJ-11-03,2011-030A,2026-07-23T21:21:55.204128,14.64369190,.0006727,97.9360,167.6130,280.5007,103.7214,0,U,37730,999,80248,.13308E-3,.658E-5,0
GLOBALSTAR M083,2011-033A,2026-07-23T15:56:16.734912,12.62258562,.0000669,51.9848,261.4384,113.8012,56.2163,0,U,37739,999,69755,.91754E-4,-.87E-6,0
GLOBALSTAR M088,2011-033B,2026-07-23T07:40:42.714048,12.62269562,.0000198,52.0195,168.9984,33.4122,130.8600,0,U,37740,999,69305,.86538E-4,-.88E-6,0
GLOBALSTAR M091,2011-033C,2026-07-23T13:48:47.397312,12.62264337,.0000619,51.9992,131.1332,38.2413,148.6110,0,U,37741,999,69387,-.53535E-5,-.105E-5,0
GLOBALSTAR M085,2011-033D,2026-07-23T16:29:52.647360,12.62264559,.0000926,52.0129,82.1168,56.2621,339.1711,0,U,37742,999,69440,-.16461E-5,-.104E-5,0
GLOBALSTAR M081,2011-033E,2026-07-23T15:07:38.171424,12.62265462,.000079,51.9961,84.6850,66.8786,308.8052,0,U,37743,999,69454,.14968E-4,-.101E-5,0
GLOBALSTAR M089,2011-033F,2026-07-23T01:42:23.177376,12.62267686,.00007251,51.9941,40.5389,99.3141,75.2064,0,U,37744,999,69531,.29139683E-4,-.99E-6,0
SES-3,2011-035A,2026-07-23T14:12:19.448064,1.00272158,.0002299,1.4178,82.6861,39.1840,289.5440,0,U,37748,999,5495,0,-.98E-6,0
KAZSAT-2,2011-035B,2026-07-23T08:15:48.255264,1.00269857,.0002243,0.0235,116.6585,48.1862,346.7034,0,U,37749,999,5376,0,-.193E-5,0
NAVSTAR 66 (USA 232),2011-036A,2026-07-23T06:22:39.491904,2.00562010,.0141474,56.5462,330.6164,62.9403,299.1581,0,U,37753,999,11000,0,-.111E-5,0
BEIDOU-2 IGSO-4,2011-038A,2026-07-23T08:18:55.454688,1.00278501,.0160077,54.6049,165.3512,231.4952,123.4200,0,U,37763,999,5500,0,-.37E-6,0
SJ-11-02,2011-039A,2026-07-23T11:32:09.735936,14.64512252,.0011219,98.2574,94.5991,143.1614,33.5747,0,U,37765,999,79926,.86987E-4,.412E-5,0
ASTRA 1N,2011-041A,2026-07-23T19:55:11.301888,1.00274337,.0006102,0.0678,26.6911,91.6209,141.2321,0,U,37775,999,4489,0,.125E-5,0
BSAT-3C (JCSAT-110R),2011-041B,2026-07-23T20:21:00.153216,1.00270405,.0000399,0.0421,292.4134,242.7069,181.6490,0,U,37776,999,5083,0,-.345E-5,0
PAKSAT-1R,2011-042A,2026-07-23T20:43:38.711136,1.00273852,.0003227,0.7811,84.2490,357.9991,208.2147,0,U,37779,999,5484,0,.158E-5,0
HAIYANG-2A,2011-043A,2026-07-23T21:23:55.924800,13.73033520,.0001469,99.3413,206.7174,5.0364,355.0798,0,U,37781,999,75169,-.63635E-4,-.102E-5,0
NIGERIASAT-2,2011-044B,2026-07-23T20:58:03.584640,14.70544986,.0030288,97.8807,180.8315,7.8831,25.3573,0,U,37789,999,79596,.76519E-4,.419E-5,0
NIGERIASAT-X,2011-044C,2026-07-23T08:49:48.332928,14.60888707,.0011346,97.8572,186.7007,215.3219,144.7232,0,U,37790,999,79545,.64386E-4,.271E-5,0
RASAT,2011-044D,2026-07-23T20:27:30.676032,14.68199978,.002197,98.0574,295.6903,77.1867,32.2166,0,U,37791,999,79856,.13673E-3,.741E-5,0
APRIZESAT 5,2011-044E,2026-07-23T19:49:33.387168,14.81138068,.0050791,98.2446,138.9072,244.1469,115.4500,0,U,37792,999,80421,.98777E-4,.724E-5,0
APRIZESAT 6,2011-044F,2026-07-23T14:34:20.057376,14.76966037,.0042401,98.2328,115.8462,331.1649,152.9790,0,U,37793,999,80252,.9493E-4,.621E-5,0
SES-2,2011-049A,2026-07-23T19:24:55.707840,1.00272587,.0003064,0.1490,90.5408,27.2296,27.9917,0,U,37809,999,5433,0,-.191E-5,0
ARABSAT-5C,2011-049B,2026-07-23T13:04:38.623872,1.00275690,.0003789,0.0480,4.8829,137.7410,14.8539,0,U,37810,999,5440,0,.129E-5,0
